{
  "norad_id": 59612,
  "name": "STARLINK-31748",
  "history": [
    {
      "epoch": "2026-03-28T20:06:31.965408Z",
      "apogee_km": 483.8348079135394,
      "perigee_km": 482.20404825371224,
      "latitude_deg": 3.911268897961902e-05,
      "longitude_deg": 158.20777428302176,
      "height_km": 482.7816036571933,
      "semi_major_axis_km": 6861.1564280836255,
      "eccentricity": 0.00011884,
      "inclination_deg": 42.9996,
      "raan_deg": 286.0935,
      "arg_perigee_deg": 271.0049,
      "mean_anomaly_deg": 89.0667,
      "mean_motion_rev_day": 15.27589908
    }
  ]
}