{"fetched_at":"2026-03-29T16:36:15Z","count":15609,"tles":[{"name":"STARLINK-31748","line1":"1 59612U 24080M   26087.83786997  .00003489  00000+0  13619-3 0  9993","line2":"2 59612  42.9996 286.0935 0001188 271.0049  89.0667 15.27589908108670","category":"Starlink"}]}